[{"OBJECT_NAME":"STARLINK-5283","OBJECT_ID":"2023-014F","EPOCH":"2026-03-09T09:18:36.425376","MEAN_MOTION":14.98325734,"ECCENTRICITY":0.0003143,"INCLINATION":69.9998,"RA_OF_ASC_NODE":65.0837,"ARG_OF_PERICENTER":270.7357,"MEAN_ANOMALY":89.3442,"EPHEMERIS_TYPE":0,"CLASSIFICATION_TYPE":"U","NORAD_CAT_ID":55396,"ELEMENT_SET_NO":999,"REV_AT_EPOCH":17201,"BSTAR":-3.1099883e-5,"MEAN_MOTION_DOT":-4.64e-6,"MEAN_MOTION_DDOT":0},{"OBJECT_NAME":"SATELIOT_2","OBJECT_ID":"2024-149BU","EPOCH":"2026-03-09T17:03:51.267456","MEAN_MOTION":14.95943652,"ECCENTRICITY":0.00018846,"INCLINATION":97.6894,"RA_OF_ASC_NODE":145.4857,"ARG_OF_PERICENTER":85.8882,"MEAN_ANOMALY":274.2555,"EPHEMERIS_TYPE":0,"CLASSIFICATION_TYPE":"U","NORAD_CAT_ID":60534,"ELEMENT_SET_NO":999,"REV_AT_EPOCH":8509,"BSTAR":0.00020754308,"MEAN_MOTION_DOT":2.267e-5,"MEAN_MOTION_DDOT":0}]
